{
  "type": "FeatureCollection",
  "features": [
    {
      "type": "Feature",
      "geometry": {
        "type": "Polygon",
        "coordinates": [[[60, 65], [80, 65], [90, 70], [85, 75], [65, 73], [55, 68], [60, 65]]]
      },
      "properties": {
        "year": 2024,
        "type": "continuous",
        "area_km2": 3250000,
        "source": "IPA 2024"
      }
    },
    {
      "type": "Feature",
      "geometry": {
        "type": "Polygon",
        "coordinates": [[[90, 60], [110, 58], [130, 60], [140, 65], [125, 70], [100, 68], [85, 63], [90, 60]]]
      },
      "properties": {
        "year": 2024,
        "type": "discontinuous",
        "area_km2": 1850000,
        "source": "IPA 2024"
      }
    },
    {
      "type": "Feature",
      "geometry": {
        "type": "Polygon",
        "coordinates": [[[130, 55], [150, 52], [170, 55], [180, 60], [165, 65], [145, 62], [130, 58], [130, 55]]]
      },
      "properties": {
        "year": 2024,
        "type": "isolated",
        "area_km2": 780000,
        "source": "IPA 2024"
      }
    },
    {
      "type": "Feature",
      "geometry": {
        "type": "Polygon",
        "coordinates": [[[45, 63], [55, 62], [65, 65], [70, 70], [60, 72], [48, 68], [45, 63]]]
      },
      "properties": {
        "year": 2024,
        "type": "relic",
        "area_km2": 120000,
        "source": "IPA 2024"
      }
    }
  ]
}